HIMAWARI-8              
1 40267U 14060A   24272.91822784 -.00000288  00000+0  00000+0 0  9995
2 40267   0.0269 151.3417 0000714  40.5314 287.5388  1.00271666 36480
